{
    "links": {
        "self": "http://www.neowsapp.com/rest/v1/neo/3841524?api_key=iIulBulltgU6a56xZRHN4H3l9WmuAYTsLGpBGhQ2"
    },
    "id": "3841524",
    "neo_reference_id": "3841524",
    "name": "(2019 GQ21)",
    "designation": "2019 GQ21",
    "nasa_jpl_url": "http://ssd.jpl.nasa.gov/sbdb.cgi?sstr=3841524",
    "absolute_magnitude_h": 25.4,
    "estimated_diameter": {
        "kilometers": {
            "estimated_diameter_min": 0.022108281,
            "estimated_diameter_max": 0.0494356193
        },
        "meters": {
            "estimated_diameter_min": 22.1082810359,
            "estimated_diameter_max": 49.435619262
        },
        "miles": {
            "estimated_diameter_min": 0.0137374447,
            "estimated_diameter_max": 0.0307178602
        },
        "feet": {
            "estimated_diameter_min": 72.5337327539,
            "estimated_diameter_max": 162.1903570994
        }
    },
    "is_potentially_hazardous_asteroid": false,
    "close_approach_data": [
        {
            "close_approach_date": "2019-03-11",
            "close_approach_date_full": "2019-Mar-11 18:18",
            "epoch_date_close_approach": 1552328280000,
            "relative_velocity": {
                "kilometers_per_second": "7.9724527901",
                "kilometers_per_hour": "28700.8300444244",
                "miles_per_hour": "17833.5796462147"
            },
            "miss_distance": {
                "astronomical": "0.0471982575",
                "lunar": "18.3601221675",
                "kilometers": "7060758.789711525",
                "miles": "4387352.067708045"
            },
            "orbiting_body": "Earth"
        }
    ],
    "orbital_data": {
        "orbit_id": "2",
        "orbit_determination_date": "2019-06-21 05:24:24",
        "first_observation_date": "2019-04-02",
        "last_observation_date": "2019-04-09",
        "data_arc_in_days": 7,
        "observations_used": 10,
        "orbit_uncertainty": "8",
        "minimum_orbit_intersection": ".0451294",
        "jupiter_tisserand_invariant": "3.733",
        "epoch_osculation": "2458580.5",
        "eccentricity": ".4777273181782254",
        "semi_major_axis": "1.946702622508203",
        "inclination": "9.386355198704257",
        "ascending_node_longitude": "180.5400226622213",
        "orbital_period": "992.0826345196543",
        "perihelion_distance": "1.016709599366841",
        "perihelion_argument": "334.0612774930247",
        "aphelion_distance": "2.876695645649565",
        "perihelion_time": "2458539.978578633216",
        "mean_anomaly": "14.70412966063588",
        "mean_motion": ".3628729981492968",
        "equinox": "J2000",
        "orbit_class": {
            "orbit_class_type": "APO",
            "orbit_class_description": "Near-Earth asteroid orbits which cross the Earth’s orbit similar to that of 1862 Apollo",
            "orbit_class_range": "a (semi-major axis) > 1.0 AU; q (perihelion) < 1.017 AU"
        }
    },
    "is_sentry_object": false
}